[{"OBJECT_NAME":"OBJECT M","OBJECT_ID":"2025-155M","EPOCH":"2026-03-09T22:37:12.666144","MEAN_MOTION":15.33288683,"ECCENTRICITY":0.00088001,"INCLINATION":97.4429,"RA_OF_ASC_NODE":38.1052,"ARG_OF_PERICENTER":139.1253,"MEAN_ANOMALY":221.0651,"EPHEMERIS_TYPE":0,"CLASSIFICATION_TYPE":"U","NORAD_CAT_ID":64887,"ELEMENT_SET_NO":999,"REV_AT_EPOCH":6565,"BSTAR":0.00087834095,"MEAN_MOTION_DOT":0.00028279,"MEAN_MOTION_DDOT":0},{"OBJECT_NAME":"STARLINK-35325","OBJECT_ID":"2025-235Y","EPOCH":"2026-03-09T18:23:07.225440","MEAN_MOTION":15.30203606,"ECCENTRICITY":9.043e-5,"INCLINATION":53.1588,"RA_OF_ASC_NODE":244.8772,"ARG_OF_PERICENTER":86.5522,"MEAN_ANOMALY":273.5582,"EPHEMERIS_TYPE":0,"CLASSIFICATION_TYPE":"U","NORAD_CAT_ID":66080,"ELEMENT_SET_NO":999,"REV_AT_EPOCH":2293,"BSTAR":0.00073661444,"MEAN_MOTION_DOT":0.00021523,"MEAN_MOTION_DDOT":0}]
